OUFTI-1                 
1 41458U 16025C   21208.83658785  .00001611  00000-0  81394-4 0  9997
2 41458  98.1492 348.4424 0156334 283.5346  74.8506 15.08848489288563
E-ST@R-II               
1 41459U 16025D   21208.81961651  .00001252  00000-0  65002-4 0  9994
2 41459  98.1469 347.4420 0158164 286.7393  71.6522 15.08253432288508
AAUSAT 4                
1 41460U 16025E   21208.69909635  .00002691  00000-0  12801-3 0  9992
2 41460  98.1473 351.3964 0144824 270.1124  88.3498 15.11409016288792
AIST-2D (RS-48)         
1 41465U 16026B   21208.95962976  .00002764  00000-0  79774-4 0  9998
2 41465  97.1022  91.6763 0009431 221.1215 149.4415 15.36464395293655
SAMSAT-218D             
1 41466U 16026C   21208.92793149  .00023388  00000-0  32416-3 0  9996
2 41466  97.1531 117.4221 0006417 127.5966 300.5322 15.57051080295138
NUSAT-1 (FRESCO)        
1 41557U 16033B   21208.83163177  .00002918  00000-0  10393-3 0  9993
2 41557  97.3956 302.5493 0014620  92.1935  24.1914 15.29650229287707
NUSAT-2 (BATATA)        
1 41558U 16033C   21208.84286054  .00002914  00000-0  97410-4 0  9997
2 41558  97.4069 306.5678 0013570  86.1130  31.3208 15.31743658287906
CARTOSAT-2C             
1 41599U 16040A   21208.96853186  .00000843  00000-0  43116-4 0  9992
2 41599  97.3968 267.4877 0012574 231.7084 252.6360 15.19272691282668
SATHYABAMASAT           
1 41600U 16040B   21208.85617875  .00003242  00000-0  12689-3 0  9992
2 41600  97.2694 264.9689 0012665 186.8121 173.2948 15.26445741283311
LAPAN-A3                
1 41603U 16040E   21208.95075554  .00000233  00000-0  13821-4 0  9995
2 41603  97.2531 254.3390 0012238 214.9210 267.5034 15.20063031282734
BIROS                   
1 41604U 16040F   21208.68478314  .00000875  00000-0  40442-4 0  9998
2 41604  97.2598 259.7835 0011711 190.9698 169.1285 15.22661359283026
SWAYAM                  
1 41607U 16040J   21208.82537204  .00003013  00000-0  11946-3 0  9994
2 41607  97.2647 263.6843 0012308 187.2404 172.8659 15.26078508283202
BEESAT-4                
1 41619U 16040W   21208.86233960  .00002824  00000-0  11335-3 0  9994
2 41619  97.2665 263.8201 0010635 178.9664 181.1598 15.25729044271176
3CAT-2                  
1 41732U 16051B   21208.76793356  .00002496  00000-0  90957-4 0  9994
2 41732  97.3763 128.7033 0013336  11.4501  42.0582 15.29064375275665
PRATHAM                 
1 41783U 16059A   21208.67623248  .00000084  00000-0  25139-4 0  9991
2 41783  97.9615 257.3984 0034822 118.1641 242.3086 14.63153684258136
ALSAT 1N                
1 41789U 16059G   21208.88784808  .00000136  00000-0  34386-4 0  9992
2 41789  97.9658 261.3917 0029750 103.0150 257.4364 14.64439322258360
LISHUI 1-01             
1 41845U 16066E   21208.91182031  .00004912  00000-0  63168-3 0  9992
2 41845  98.7348 314.5215 0266561 356.0545   3.8511 14.59770723249309
CARTOSAT-2D             
1 41948U 17008A   21208.78478845  .00000949  00000-0  48214-4 0  9991
2 41948  97.4398 268.5013 0007874  32.4112 327.7591 15.19271788246502
NAYIF-1 (EO-88)         
1 42017U 17008BX  21208.69667590  .00003008  00000-0  11139-3 0  9990
2 42017  97.3133 275.5772 0004995 342.2327  17.8737 15.28414171247401
ZHUHAI-1 02 (CAS-4B)    
1 42759U 17034B   21208.71583428  .00000903  00000-0  67495-4 0  9990
2 42759  43.0183 319.7226 0007859  46.6784 101.9934 15.10286607227231
ZHUHAI-1 01 (CAS-4A)    
1 42761U 17034D   21208.70327786  .00000867  00000-0  65207-4 0  9993
2 42761  43.0186 318.8171 0008127  49.1654  92.9953 15.10374191227235
UCLSAT                  
1 42765U 17036A   21208.87793654  .00002501  00000-0  10271-3 0  9995
2 42765  97.2462 257.1536 0011870  42.8266 317.3894 15.25047282228339
NIUSAT                  
1 42766U 17036B   21208.66130965  .00001909  00000-0  84113-4 0  9991
2 42766  97.2473 253.2355 0015996  39.7817 320.4590 15.22879772227339
CARTOSAT-2E             
1 42767U 17036C   21208.81886163  .00001063  00000-0  53699-4 0  9993
2 42767  97.5022 267.5667 0010186  72.7310  39.4689 15.19228963227071
LITUANICASAT-2          
1 42768U 17036D   21208.85391351  .00004271  00000-0  16525-3 0  9998
2 42768  97.2536 258.0621 0014139  30.4980 329.7078 15.26635815227635
AALTO-1                 
1 42775U 17036L   21208.63583376  .00001539  00000-0  68597-4 0  9993
2 42775  97.2442 253.4404 0014513  39.5067 320.7225 15.22800841227318
URSA MAIOR              
1 42776U 17036M   21208.89398338  .00001742  00000-0  76638-4 0  9995
2 42776  97.2455 254.1789 0014249  38.2298 321.9947 15.23077860227373
COMPASS 2               
1 42777U 17036N   21208.84431437  .00003384  00000-0  13429-3 0  9991
2 42777  97.2522 258.1659 0012290  33.1252 327.0754 15.25956067227579
MAX VALIER SAT          
1 42778U 17036P   21208.88958750  .00001904  00000-0  81910-4 0  9995
2 42778  97.2517 256.1714 0012848  41.3293 318.8914 15.23754958227444
PEGASUS                 
1 42784U 17036V   21208.86932146  .00002344  00000-0  97666-4 0  9995
2 42784  97.2469 256.6477 0012499  44.1094 316.1139 15.24607757227513
NUDTSAT                 
1 42787U 17036Y   21208.95433697  .00002777  00000-0  10849-3 0  9992
2 42787  97.2524 259.2721 0012483  30.5852 329.6119 15.26628718227512
SUCHAI                  
1 42788U 17036Z   21208.78135188  .00002795  00000-0  11317-3 0  9999
2 42788  97.2481 257.6049 0011886  41.9018 318.3127 15.25434313227638
SKCUBE                  
1 42789U 17036AA  21208.88329419  .00002565  00000-0  10492-3 0  9991
2 42789  97.2474 257.3965 0011823  42.3032 317.9116 15.25154723227555
VZLUSAT-1               
1 42790U 17036AB  21208.68688406  .00003483  00000-0  13552-3 0  9995
2 42790  97.2505 259.0015 0011052  39.1885 321.0152 15.26610897227625
ROBUSTA-1B              
1 42792U 17036AD  21208.84576764  .00002742  00000-0  11120-3 0  9994
2 42792  97.2477 257.7555 0011402  42.6594 317.5528 15.25401666227587
D-SAT                   
1 42794U 17036AF  21208.81058110  .00000736  00000-0  67856-4 0  9992
2 42794  97.4598 226.5557 0127087  91.0942 270.4841 14.91616755223077
NORSAT 2                
1 42828U 17042D   21208.61016916  .00000337  00000-0  38526-4 0  9992
2 42828  97.4728  77.5039 0014795  17.3171 342.8550 14.91898723219720
TECHNOSAT               
1 42829U 17042E   21208.64555461  .00000376  00000-0  42883-4 0  9993
2 42829  97.4640  76.0369 0014690  19.1726 341.0043 14.91312205219672
2017-042F               
1 42830U 17042F   21208.62242531  .00000778  00000-0  79957-4 0  9992
2 42830  97.4765  78.7994 0014526  11.8119 348.3439 14.92962066219797
FLYING LAPTOP           
1 42831U 17042G   21208.75270473 -.00000276  00000-0 -22455-4 0  9999
2 42831  97.4665  76.3725 0014705  19.3837 340.7924 14.91320993219692
CORVUS BC2              
1 42846U 17042X   21208.86469570  .00000352  00000-0  39545-4 0  9996
2 42846  97.4674  78.8067 0009874  12.9473 347.1998 14.92327322219865
CORVUS BC1              
1 42847U 17042Y   21208.63160348  .00000133  00000-0  18132-4 0  9999
2 42847  97.4679  78.8317 0009548  13.3568 346.7903 14.92425753219832
SIMPL                   
1 42983U 98067NF  21208.81982636  .00009420  00000-0  89813-4 0  9990
2 42983  51.6366  54.1666 0003436 138.2246 221.9013 15.67573997213738
CZ-4C R/B               
1 43012U 17072C   21208.75587271  .00000050  00000-0  22184-4 0  9998
2 43012  98.7279 225.2978 0126568 229.4529 129.5593 14.56183791196601
RADFXSAT (FOX-1B)       
1 43017U 17073E   21208.70753507  .00000585  00000-0  50146-4 0  9998
2 43017  97.7030 111.0975 0254920 168.7258 191.9819 14.79613453199073
EAGLESAT 1              
1 43018U 17073F   21208.71260539  .00001011  00000-0  81318-4 0  9998
2 43018  97.7040 112.0594 0251408 165.1389 195.7393 14.80707642199005
ECAMSAT                 
1 43019U 98067NG  21208.63734569  .00038807  00000-0  18758-3 0  9991
2 43019  51.6384  16.1634 0001585 152.9609 207.1476 15.82145100296548
INS-1C                  
1 43116U 18004F   21208.73283551  .00002302  00000-0  94103-4 0  9993
2 43116  97.4123 282.8348 0010455  65.5998 294.6330 15.25340601196780
FLOCK 3P'-3             
1 43119U 18004J   21208.65478704  .00001651  00000-0  70216-4 0  9998
2 43119  97.4112 281.5903 0011470  73.0588 287.1906 15.24394489196701
FLOCK 3P'-2             
1 43120U 18004K   21208.70500638  .00001261  00000-0  54856-4 0  9997
2 43120  97.4120 281.4219 0011530  73.5342 286.7161 15.24043992196697
FLOCK 3P'-1             
1 43121U 18004L   21208.84260558  .00005061  00000-0  19057-3 0  9992
2 43121  97.4112 283.6307 0010333  67.0469 293.1860 15.27511961196786
FLOCK 3P'-4             
1 43122U 18004M   21208.69965544  .00001302  00000-0  56502-4 0  9994
2 43122  97.4129 281.5291 0011367  75.2245 285.0251 15.24071530196699
MICROMAS-2A             
1 43131U 18004W   21208.73599145  .00003686  00000-0  13885-3 0  9992
2 43131  97.4098 284.4082 0009770  66.7692 293.4575 15.27683959196914
PICSAT                  
1 43132U 18004X   21208.84592052  .00002340  00000-0  93617-4 0  9993
2 43132  97.4076 283.0276 0010549  70.6688 289.5690 15.26043020196840
CNUSAIL-1               
1 43133U 18004Y   21208.44139115  .00001895  00000-0  78737-4 0  9997
2 43133  97.4046 281.5630 0010810  73.9481 286.2946 15.25001331196715
2018-004Z               
1 43134U 18004Z   21208.77517874  .00002253  00000-0  91292-4 0  9996
2 43134  97.4064 282.6151 0010504  72.1990 288.0393 15.25649357196815
FOX-1D (AO-92)          
1 43137U 18004AC  21208.74324514  .00002014  00000-0  82507-4 0  9997
2 43137  97.4049 282.3636 0010374  73.6211 286.6166 15.25414282196801
STEP CUBE LAB           
1 43138U 18004AD  21208.74032958  .00003291  00000-0  12600-3 0  9990
2 43138  97.4095 284.2295 0009861  70.7727 289.4578 15.27221213196905
XIAOXIANG-2             
1 43155U 18008A   21208.95525639  .00001236  00000-0  74362-4 0  9990
2 43155  97.3995 272.7030 0016902 183.0691 302.0234 15.12547846194190
